STARLINK-1423
1 45710U 20035BF  26090.50999000  .00125233  00000+0  16932-2 0  9994
2 45710  53.0489 276.5376 0006597 205.8932 154.1749 15.56832617322743
